CUBERRT                 
1 43546U 98067NU  20095.08008681  .00029695  00000-0  23789-3 0  9992
2 43546  51.6349 302.3355 0003912 159.4923 200.6232 15.70777367 98542
TEMPEST-D               
1 43547U 98067NV  20095.13767603  .00012354  00000-0  14686-3 0  9995
2 43547  51.6377 326.8138 0005587 133.5654 226.5805 15.61567459 97909
RAINCUBE                
1 43548U 98067NW  20095.29134676  .00030496  00000-0  24649-3 0  9998
2 43548  51.6343 309.7222 0004938 164.2434 195.8718 15.70543349 98592
HALOSAT                 
1 43549U 98067NX  20095.07335316  .00029037  00000-0  23959-3 0  9991
2 43549  51.6362 311.3242 0004406 164.0022 196.1116 15.70076135 98114
ENDUROSAT ONE           
1 43551U 98067NZ  20095.03452369  .00043309  00000-0  28583-3 0  9994
2 43551  51.6341 303.4860 0005071 180.5051 179.5944 15.75140372 98626
EQUISAT                 
1 43552U 98067PA  20095.00527260  .00027030  00000-0  21829-3 0  9994
2 43552  51.6364 310.1595 0005437 169.9007 190.2101 15.70630711 98496
AEROCUBE 12A            
1 43556U 18046C   20095.22196451  .00002678  00000-0  10444-3 0  9997
2 43556  51.6405 102.1764 0008535  32.3177 327.8325 15.29565732 96012
AEROCUBE 12B            
1 43557U 18046D   20094.74694690  .00001066  00000-0  49425-4 0  9994
2 43557  51.6417 104.9960 0008653  30.6505 329.4979 15.29316463 95883
UITMSAT-1               
1 43589U 98067PD  20095.00945667  .00033816  00000-0  25279-3 0  9991
2 43589  51.6329 309.2821 0005063 180.2264 179.8733 15.72351161 94248
MAYA-1                  
1 43590U 98067PE  20094.87532180  .00031282  00000-0  23433-3 0  9994
2 43590  51.6333 309.8955 0005127 180.5274 179.5719 15.72343903 94150
BHUTAN-1                
1 43591U 98067PF  20094.98065404  .00031627  00000-0  23584-3 0  9997
2 43591  51.6340 309.1540 0005208 181.5786 178.5197 15.72445097 94179
SIRIUSSAT-1             
1 43595U 98067PG  20095.05681947  .00030732  00000-0  24784-3 0  9995
2 43595  51.6335 312.6274 0003184 151.7842 208.3329 15.70600628 93318
SIRIUSSAT-2             
1 43596U 98067PH  20095.17717499  .00034081  00000-0  27531-3 0  9995
2 43596  51.6341 312.7484 0003552 149.1359 210.9848 15.70503795 93326
TANUSHA-3               
1 43597U 98067PJ  20095.29369273  .00065272  00000-0  39573-3 0  9997
2 43597  51.6309 303.5988 0003317 183.4852 176.6126 15.76913699 93451
SURFSAT                 
1 43614U 18070B   20095.02038332  .00002621  00000-0  68387-4 0  9998
2 43614  93.0235 123.8304 0012461 263.6826  96.3009 15.38830037 87033
CP7 (DAVE)              
1 43615U 18070C   20095.24034188  .00002789  00000-0  73032-4 0  9996
2 43615  93.0237 123.9157 0012625 262.0644  97.9177 15.38706307 87064
ELFIN-B                 
1 43616U 18070D   20095.14698595  .00004456  00000-0  11211-3 0  9997
2 43616  93.0201 123.7991 0013062 265.0039  94.9724 15.39892358 87087
ELFIN-A                 
1 43617U 18070E   20095.31838345  .00004521  00000-0  11321-3 0  9991
2 43617  93.0255 124.3201 0012411 259.9808 100.0046 15.40045409 87110
CUBEBEL-1 (BSUSAT-1)    
1 43666U 18083E   20095.42116144  .00001117  00000-0  58013-4 0  9995
2 43666  97.4970 122.5958 0013253 256.9053 209.9749 15.18115756 79386
DEBRISSAT-2             
1 43680U 98067PR  20095.04672919  .00154262  00000-0  60249-3 0  9999
2 43680  51.6322 298.1991 0004613 224.6197 135.4436 15.86049220102237
CICERO 10               
1 43690U 18088A   20095.37305278  .00001065  00000-0  47397-4 0  9994
2 43690  85.0355 127.1404 0013435 214.3400 145.6974 15.20115795 77487
IRVINE01                
1 43693U 18088D   20095.03551776  .00002486  00000-0  10510-3 0  9990
2 43693  85.0331 126.2712 0017067 197.2745 162.7919 15.22544751 77526
PROXIMA I               
1 43694U 18088E   20095.05504143  .00000921  00000-0  38562-4 0  9999
2 43694  85.0297 126.0679 0018727 190.0229 170.0643 15.21844114 77532
PROXIMA II              
1 43696U 18088G   20095.25064524  .00000988  00000-0  41501-4 0  9997
2 43696  85.0298 125.9414 0018800 189.2270 170.8630 15.21847632 77552
FACSAT-1                
1 43721U 18096C   20095.43054710  .00001721  00000-0  67430-4 0  9996
2 43721  97.4255 169.3962 0018340  29.3794 330.8472 15.27028845 75097
CENTAURI-2              
1 43722U 18096D   20095.34934954  .00002229  00000-0  85320-4 0  9996
2 43722  97.4265 169.5242 0018315  29.8589 330.3691 15.27487140 75085
INNOSAT-2               
1 43738U 18096V   20095.43291633  .00003275  00000-0  11463-3 0  9991
2 43738  97.4279 171.2758 0024354  36.0124 324.2751 15.29966486 75215
SIRION PATHFINDER-2     
1 43759U 18099B   20095.36465154  .00000152  00000-0  19040-4 0  9991
2 43759  97.7108 168.2691 0015825  72.9005 287.3947 14.95248281 72855
CORVUS-BC 4             
1 43767U 18099K   20095.14446728  .00000597  00000-0  60167-4 0  9991
2 43767  97.7090 167.5436 0013302  77.8299 282.4411 14.94688682 72809
MOVE-II                 
1 43780U 18099Y   20095.18216045  .00000128  00000-0  16786-4 0  9995
2 43780  97.7112 168.0022 0015043  84.3762 275.9174 14.95325658 72814
SPACEBEE-7              
1 43816U 18099BL  20095.33702625  .00000620  00000-0  60864-4 0  9999
2 43816  97.7123 168.5002 0014732  70.2458 290.0350 14.95629256 72410
SPACEBEE-5              
1 43817U 18099BM  20095.18500378  .00000698  00000-0  67040-4 0  9992
2 43817  97.7169 168.6855 0014426  71.1992 289.0793 14.96158379 72403
SPACEBEE-6              
1 43818U 18099BN  20095.17557841  .00000229  00000-0  25633-4 0  9991
2 43818  97.7139 168.4462 0014753  70.2628 290.0183 14.95798935 72549
SHIELDS 1               
1 43850U 18104B   20095.40291111  .00000041  00000-0  00000+0 0  9993
2 43850  85.0276 224.2791 0014765 351.5542   8.5535 15.21322306 72218
STF-1                   
1 43852U 18104D   20095.14597844  .00000041  00000-0  00000+0 0  9998
2 43852  85.0323 224.9360 0014830   8.0776 352.0824 15.21131361 72158
ZACUBE-2                
1 43907U 18111AH  20095.41589229  .00000666  00000-0  29759-4 0  9995
2 43907  97.2720 357.3846 0022892  48.2909 312.0282 15.24509111 70737
LUME 1                  
1 43908U 18111AJ  20095.22907899  .00001286  00000-0  54192-4 0  9990
2 43908  97.2721 357.3274 0022718  48.6517 311.6670 15.24889583 70718
AOBA VELOX-IV           
1 43940U 19003J   20095.43441153  .00002434  00000-0  10027-3 0  9990
2 43940  97.2372 149.2285 0025511 123.1044 295.3034 15.24740144 67373
CATSAT-2                
1 44029U 98067PV  20095.20171499  .00022965  00000-0  25375-3 0  9997
2 44029  51.6395 331.7904 0004681 158.9427 201.1761 15.62932019 66909
DELPHINI                
1 44030U 98067PW  20094.94047258  .00018509  00000-0  20023-3 0  9998
2 44030  51.6364 332.2155 0004796 156.3132 203.8085 15.63632128 66843
UNITE                   
1 44031U 98067PX  20095.09550958  .00011592  00000-0  14693-3 0  9993
2 44031  51.6386 336.2971 0003747 147.7894 212.3328 15.59955015 66801
TECHEDSAT 8             
1 44032U 98067PY  20095.29077919  .00405070  76646-4  10045-2 0  9994
2 44032  51.6246 306.5670 0007793 240.0113 120.0122 15.95292223 67194
CATSAT-1                
1 44033U 98067PZ  20095.20160460  .00020254  00000-0  22449-3 0  9996
2 44033  51.6398 331.7947 0004511 155.4537 204.6673 15.62941103 66814
RAAVANA-1               
1 44329U 98067QE  20095.39325942  .00012488  00000-0  17950-3 0  9993
2 44329  51.6403 345.0761 0006928  90.1143 270.0643 15.56472097 45469
UGUISU                  
1 44330U 98067QF  20095.14541736  .00012529  00000-0  18055-3 0  9992
2 44330  51.6405 346.4175 0006915  88.1084 272.0699 15.56400458 45403
NEPALISAT-1             
1 44331U 98067QG  20095.38700885  .00012481  00000-0  17922-3 0  9990
2 44331  51.6405 345.0339 0006940  91.6946 268.4841 15.56501593 45450
SPOOQY-1                
1 44332U 98067QH  20095.00136098  .00010274  00000-0  14921-3 0  9993
2 44332  51.6407 346.9552 0005960  92.7041 267.4633 15.56428527 45351
SPACEBEE-9              
1 44370U 19037F   20095.27893257  .00009953  00000-0  23304-3 0  9998
2 44370  45.0100 170.1632 0010958 109.3592 250.8470 15.42365431 43144
SPACEBEE-8              
1 44371U 19037G   20095.20708550  .00018711  00000-0  38671-3 0  9998
2 44371  45.0107 167.1049 0008925 104.5031 255.6855 15.45564515 43165
IOD-1 GEMS              
1 44385U 98067QK  20095.14650422  .00019391  00000-0  25986-3 0  9990
2 44385  51.6418 345.7137 0002901  67.0993 293.0306 15.57986047 42895
MOVE-IIB                
1 44398U 19038N   20095.17901711  .00001518  00000-0  91136-4 0  9991
2 44398  97.5286  57.4004 0026209  26.8629 333.3952 15.12159814 41357
SONATE                  
1 44400U 19038Q   20095.32978449  .00000558  00000-0  36170-4 0  9994
2 44400  97.5318  57.5679 0025997  24.7471 335.5001 15.11882378 41379
LUCKY-7                 
1 44406U 19038W   20095.15952789  .00000865  00000-0  53665-4 0  9999
2 44406  97.5312  57.4794 0025467  25.1495 335.0969 15.12127935 41346
BEESAT 9                
1 44412U 19038AC  20095.35985960  .00001158  00000-0  70495-4 0  9991
2 44412  97.5305  57.6586 0023720  30.3700 329.8899 15.12175871 41078
JAISAT-1                
1 44419U 19038F   20095.13918974  .00001081  00000-0  65263-4 0  9997
2 44419  97.5307  57.6490 0022566  30.6896 329.5649 15.12658024 41365
SWIATOWID               
1 44426U 98067QL  20095.45041667  .00022063  00000-0  28926-3 0  9992
2 44426  51.6431 343.9881 0003791  61.2433 295.6393 15.58479661 42956
KRAKSAT                 
1 44427U 98067QM  20095.12852524  .00009425  00000-0  14526-3 0  9997
2 44427  51.6424 348.5860 0003843  51.0924 309.0409 15.54913764 42914
VCC A                   
1 44428U 98067QN  20095.22883543  .00012603  00000-0  18495-3 0  9995
2 44428  51.6421 347.0097 0003317  74.1207 286.0150 15.55909964 42942
ENTRYSAT                
1 44429U 98067QP  20095.23899756  .00015116  00000-0  21475-3 0  9994
2 44429  51.6412 346.3125 0002937  70.6590 289.4719 15.56615837 42953
